KUIPER-00097            
1 65136U 25171E   26066.58127660  .00007515  00000+0  10135-2 0  9991
2 65136  51.9013 170.0365 0000451  58.5059 301.5947 14.79940393 32537
KUIPER-00098            
1 65137U 25171F   26066.57854651 -.00003876  00000+0 -48017-3 0  9997
2 65137  51.9015 172.4249 0001524 163.7905 196.3107 14.79891720 31859
KUIPER-00099            
1 65138U 25171G   26066.55649495  .00007215  00000+0  97494-3 0  9996
2 65138  51.9010 162.5141 0000574  34.6693 325.4306 14.79906994 32644
KUIPER-00100            
1 65139U 25171H   26066.52452455  .00006740  00000+0  91219-3 0  9993
2 65139  51.8982 160.1261 0000735  85.0806 275.0240 14.79934151 32670
KUIPER-00102            
1 65140U 25171J   26066.45407818  .00007169  00000+0  96622-3 0  9999
2 65140  51.8994 162.9635 0000446  68.3705 291.7305 14.80025069 32624
KUIPER-00103            
1 65141U 25171K   26066.60425408  .00007120  00000+0  96222-3 0  9995
2 65141  51.8988 179.7913 0001625 132.8934 227.2165 14.79922178 32403
KUIPER-00104            
1 65142U 25171L   26066.48264452  .00004739  00000+0  65057-3 0  9997
2 65142  51.9007 167.7916 0000626  80.3752 279.7281 14.79906478 32565
KUIPER-00105            
1 65143U 25171M   26066.50816681  .00007447  00000+0  10065-2 0  9995
2 65143  51.9001 175.2984 0001363  97.1724 262.9393 14.79864672 32469
KUIPER-00106            
1 65144U 25171N   26066.57419916  .00005668  00000+0  50665-3 0  9997
2 65144  51.8922 164.5848 0007903  91.4781 268.7094 14.97179226 32621
KUIPER-00107            
1 65145U 25171P   26066.45965271 -.00002725  00000+0 -32835-3 0  9997
2 65145  51.9002 157.9510 0000542 308.8730  51.2184 14.79962951 32704
KUIPER-00108            
1 65146U 25171Q   26066.47997873  .00004961  00000+0  67923-3 0  9991
2 65146  51.9033 170.3798 0000912 158.2080 201.8922 14.79936990 32530
KUIPER-00109            
1 65147U 25171R   26066.51913069  .00002597  00000+0  36957-3 0  9998
2 65147  51.9001 165.1478 0000449  81.6745 278.4269 14.79927900 32608
KUIPER-00110            
1 65148U 25171S   26066.60799678  .00006851  00000+0  92616-3 0  9998
2 65148  51.9006 177.3534 0001771 186.9322 173.1616 14.79961697 32430
KUIPER-00111            
1 65149U 25171T   26066.56738439  .00007376  00000+0  99263-3 0  9990
2 65149  51.8975 182.4295 0001777 147.6803 212.4268 14.80053358 32360
KUIPER-00112            
1 65150U 25171U   26066.48524885  .00007086  00000+0  95533-3 0  9995
2 65150  51.9013 165.3513 0000289  73.9965 286.1029 14.80032171 32594
KUIPER-00114            
1 65151U 25171V   26066.63261603  .00005396  00000+0  73625-3 0  9999
2 65151  51.8997 184.6971 0001103 131.9372 228.1685 14.79935289 32336
