[{"OBJECT_NAME":"KUIPER-00097","OBJECT_ID":"2025-171E","EPOCH":"2026-03-07T13:57:02.298240","MEAN_MOTION":14.79940393,"ECCENTRICITY":4.517e-5,"INCLINATION":51.9013,"RA_OF_ASC_NODE":170.0365,"ARG_OF_PERICENTER":58.5059,"MEAN_ANOMALY":301.5947,"EPHEMERIS_TYPE":0,"CLASSIFICATION_TYPE":"U","NORAD_CAT_ID":65136,"ELEMENT_SET_NO":999,"REV_AT_EPOCH":3253,"BSTAR":0.0010134706,"MEAN_MOTION_DOT":7.515e-5,"MEAN_MOTION_DDOT":0},{"OBJECT_NAME":"KUIPER-00098","OBJECT_ID":"2025-171F","EPOCH":"2026-03-07T13:53:06.418464","MEAN_MOTION":14.7989172,"ECCENTRICITY":0.00015247,"INCLINATION":51.9015,"RA_OF_ASC_NODE":172.4249,"ARG_OF_PERICENTER":163.7905,"MEAN_ANOMALY":196.3107,"EPHEMERIS_TYPE":0,"CLASSIFICATION_TYPE":"U","NORAD_CAT_ID":65137,"ELEMENT_SET_NO":999,"REV_AT_EPOCH":3185,"BSTAR":-0.00048017202,"MEAN_MOTION_DOT":-3.876e-5,"MEAN_MOTION_DDOT":0},{"OBJECT_NAME":"KUIPER-00099","OBJECT_ID":"2025-171G","EPOCH":"2026-03-07T13:21:21.163680","MEAN_MOTION":14.79906994,"ECCENTRICITY":5.741e-5,"INCLINATION":51.901,"RA_OF_ASC_NODE":162.5141,"ARG_OF_PERICENTER":34.6693,"MEAN_ANOMALY":325.4306,"EPHEMERIS_TYPE":0,"CLASSIFICATION_TYPE":"U","NORAD_CAT_ID":65138,"ELEMENT_SET_NO":999,"REV_AT_EPOCH":3264,"BSTAR":0.00097494116,"MEAN_MOTION_DOT":7.215e-5,"MEAN_MOTION_DDOT":0},{"OBJECT_NAME":"KUIPER-00100","OBJECT_ID":"2025-171H","EPOCH":"2026-03-07T12:35:18.921120","MEAN_MOTION":14.79934151,"ECCENTRICITY":7.351e-5,"INCLINATION":51.8982,"RA_OF_ASC_NODE":160.1261,"ARG_OF_PERICENTER":85.0806,"MEAN_ANOMALY":275.024,"EPHEMERIS_TYPE":0,"CLASSIFICATION_TYPE":"U","NORAD_CAT_ID":65139,"ELEMENT_SET_NO":999,"REV_AT_EPOCH":3267,"BSTAR":0.00091218559,"MEAN_MOTION_DOT":6.74e-5,"MEAN_MOTION_DDOT":0},{"OBJECT_NAME":"KUIPER-00102","OBJECT_ID":"2025-171J","EPOCH":"2026-03-07T10:53:52.354752","MEAN_MOTION":14.80025069,"ECCENTRICITY":4.462e-5,"INCLINATION":51.8994,"RA_OF_ASC_NODE":162.9635,"ARG_OF_PERICENTER":68.3705,"MEAN_ANOMALY":291.7305,"EPHEMERIS_TYPE":0,"CLASSIFICATION_TYPE":"U","NORAD_CAT_ID":65140,"ELEMENT_SET_NO":999,"REV_AT_EPOCH":3262,"BSTAR":0.00096622272,"MEAN_MOTION_DOT":7.169e-5,"MEAN_MOTION_DDOT":0},{"OBJECT_NAME":"KUIPER-00103","OBJECT_ID":"2025-171K","EPOCH":"2026-03-07T14:30:07.552512","MEAN_MOTION":14.79922178,"ECCENTRICITY":0.00016255,"INCLINATION":51.8988,"RA_OF_ASC_NODE":179.7913,"ARG_OF_PERICENTER":132.8934,"MEAN_ANOMALY":227.2165,"EPHEMERIS_TYPE":0,"CLASSIFICATION_TYPE":"U","NORAD_CAT_ID":65141,"ELEMENT_SET_NO":999,"REV_AT_EPOCH":3240,"BSTAR":0.00096221722,"MEAN_MOTION_DOT":7.12e-5,"MEAN_MOTION_DDOT":0},{"OBJECT_NAME":"KUIPER-00104","OBJECT_ID":"2025-171L","EPOCH":"2026-03-07T11:35:00.486528","MEAN_MOTION":14.79906478,"ECCENTRICITY":6.264e-5,"INCLINATION":51.9007,"RA_OF_ASC_NODE":167.7916,"ARG_OF_PERICENTER":80.3752,"MEAN_ANOMALY":279.7281,"EPHEMERIS_TYPE":0,"CLASSIFICATION_TYPE":"U","NORAD_CAT_ID":65142,"ELEMENT_SET_NO":999,"REV_AT_EPOCH":3256,"BSTAR":0.00065057141,"MEAN_MOTION_DOT":4.739e-5,"MEAN_MOTION_DDOT":0},{"OBJECT_NAME":"KUIPER-00105","OBJECT_ID":"2025-171M","EPOCH":"2026-03-07T12:11:45.612384","MEAN_MOTION":14.79864672,"ECCENTRICITY":0.00013636,"INCLINATION":51.9001,"RA_OF_ASC_NODE":175.2984,"ARG_OF_PERICENTER":97.1724,"MEAN_ANOMALY":262.9393,"EPHEMERIS_TYPE":0,"CLASSIFICATION_TYPE":"U","NORAD_CAT_ID":65143,"ELEMENT_SET_NO":999,"REV_AT_EPOCH":3246,"BSTAR":0.0010064638,"MEAN_MOTION_DOT":7.447e-5,"MEAN_MOTION_DDOT":0},{"OBJECT_NAME":"KUIPER-00106","OBJECT_ID":"2025-171N","EPOCH":"2026-03-07T13:46:50.807424","MEAN_MOTION":14.97179226,"ECCENTRICITY":0.00079033,"INCLINATION":51.8922,"RA_OF_ASC_NODE":164.5848,"ARG_OF_PERICENTER":91.4781,"MEAN_ANOMALY":268.7094,"EPHEMERIS_TYPE":0,"CLASSIFICATION_TYPE":"U","NORAD_CAT_ID":65144,"ELEMENT_SET_NO":999,"REV_AT_EPOCH":3262,"BSTAR":0.00050664916,"MEAN_MOTION_DOT":5.668e-5,"MEAN_MOTION_DDOT":0},{"OBJECT_NAME":"KUIPER-00107","OBJECT_ID":"2025-171P","EPOCH":"2026-03-07T11:01:53.994144","MEAN_MOTION":14.79962951,"ECCENTRICITY":5.427e-5,"INCLINATION":51.9002,"RA_OF_ASC_NODE":157.951,"ARG_OF_PERICENTER":308.873,"MEAN_ANOMALY":51.2184,"EPHEMERIS_TYPE":0,"CLASSIFICATION_TYPE":"U","NORAD_CAT_ID":65145,"ELEMENT_SET_NO":999,"REV_AT_EPOCH":3270,"BSTAR":-0.00032835112,"MEAN_MOTION_DOT":-2.725e-5,"MEAN_MOTION_DDOT":0},{"OBJECT_NAME":"KUIPER-00108","OBJECT_ID":"2025-171Q","EPOCH":"2026-03-07T11:31:10.162272","MEAN_MOTION":14.7993699,"ECCENTRICITY":9.127e-5,"INCLINATION":51.9033,"RA_OF_ASC_NODE":170.3798,"ARG_OF_PERICENTER":158.208,"MEAN_ANOMALY":201.8922,"EPHEMERIS_TYPE":0,"CLASSIFICATION_TYPE":"U","NORAD_CAT_ID":65146,"ELEMENT_SET_NO":999,"REV_AT_EPOCH":3253,"BSTAR":0.00067923122,"MEAN_MOTION_DOT":4.961e-5,"MEAN_MOTION_DDOT":0},{"OBJECT_NAME":"KUIPER-00109","OBJECT_ID":"2025-171R","EPOCH":"2026-03-07T12:27:32.891616","MEAN_MOTION":14.799279,"ECCENTRICITY":4.496e-5,"INCLINATION":51.9001,"RA_OF_ASC_NODE":165.1478,"ARG_OF_PERICENTER":81.6745,"MEAN_ANOMALY":278.4269,"EPHEMERIS_TYPE":0,"CLASSIFICATION_TYPE":"U","NORAD_CAT_ID":65147,"ELEMENT_SET_NO":999,"REV_AT_EPOCH":3260,"BSTAR":0.00036956778,"MEAN_MOTION_DOT":2.597e-5,"MEAN_MOTION_DDOT":0},{"OBJECT_NAME":"KUIPER-00110","OBJECT_ID":"2025-171S","EPOCH":"2026-03-07T14:35:30.921792","MEAN_MOTION":14.79961697,"ECCENTRICITY":0.0001771,"INCLINATION":51.9006,"RA_OF_ASC_NODE":177.3534,"ARG_OF_PERICENTER":186.9322,"MEAN_ANOMALY":173.1616,"EPHEMERIS_TYPE":0,"CLASSIFICATION_TYPE":"U","NORAD_CAT_ID":65148,"ELEMENT_SET_NO":999,"REV_AT_EPOCH":3243,"BSTAR":0.00092615618,"MEAN_MOTION_DOT":6.851e-5,"MEAN_MOTION_DDOT":0},{"OBJECT_NAME":"KUIPER-00111","OBJECT_ID":"2025-171T","EPOCH":"2026-03-07T13:37:02.011296","MEAN_MOTION":14.80053358,"ECCENTRICITY":0.0001777,"INCLINATION":51.8975,"RA_OF_ASC_NODE":182.4295,"ARG_OF_PERICENTER":147.6803,"MEAN_ANOMALY":212.4268,"EPHEMERIS_TYPE":0,"CLASSIFICATION_TYPE":"U","NORAD_CAT_ID":65149,"ELEMENT_SET_NO":999,"REV_AT_EPOCH":3236,"BSTAR":0.00099263106,"MEAN_MOTION_DOT":7.376e-5,"MEAN_MOTION_DDOT":0},{"OBJECT_NAME":"KUIPER-00112","OBJECT_ID":"2025-171U","EPOCH":"2026-03-07T11:38:45.500640","MEAN_MOTION":14.80032171,"ECCENTRICITY":2.895e-5,"INCLINATION":51.9013,"RA_OF_ASC_NODE":165.3513,"ARG_OF_PERICENTER":73.9965,"MEAN_ANOMALY":286.1029,"EPHEMERIS_TYPE":0,"CLASSIFICATION_TYPE":"U","NORAD_CAT_ID":65150,"ELEMENT_SET_NO":999,"REV_AT_EPOCH":3259,"BSTAR":0.00095533163,"MEAN_MOTION_DOT":7.086e-5,"MEAN_MOTION_DDOT":0},{"OBJECT_NAME":"KUIPER-00114","OBJECT_ID":"2025-171V","EPOCH":"2026-03-07T15:10:58.024992","MEAN_MOTION":14.79935289,"ECCENTRICITY":0.0001103,"INCLINATION":51.8997,"RA_OF_ASC_NODE":184.6971,"ARG_OF_PERICENTER":131.9372,"MEAN_ANOMALY":228.1685,"EPHEMERIS_TYPE":0,"CLASSIFICATION_TYPE":"U","NORAD_CAT_ID":65151,"ELEMENT_SET_NO":999,"REV_AT_EPOCH":3233,"BSTAR":0.00073625413,"MEAN_MOTION_DOT":5.396e-5,"MEAN_MOTION_DDOT":0}]
